[{"OBJECT_NAME":"STARLINK-30068","OBJECT_ID":"2023-067L","EPOCH":"2026-03-09T22:00:01.999584","MEAN_MOTION":15.26725268,"ECCENTRICITY":0.00017078,"INCLINATION":43.0002,"RA_OF_ASC_NODE":258.5612,"ARG_OF_PERICENTER":287.215,"MEAN_ANOMALY":82.587,"EPHEMERIS_TYPE":0,"CLASSIFICATION_TYPE":"U","NORAD_CAT_ID":56698,"ELEMENT_SET_NO":999,"REV_AT_EPOCH":578,"BSTAR":0.0021438096,"MEAN_MOTION_DOT":0.00057671,"MEAN_MOTION_DDOT":0},{"OBJECT_NAME":"ELECTRON KICK STAGE R\/B","OBJECT_ID":"2024-248B","EPOCH":"2026-03-09T20:49:52.700448","MEAN_MOTION":15.26602112,"ECCENTRICITY":0.00382118,"INCLINATION":97.6105,"RA_OF_ASC_NODE":34.9036,"ARG_OF_PERICENTER":284.4829,"MEAN_ANOMALY":75.2171,"EPHEMERIS_TYPE":0,"CLASSIFICATION_TYPE":"U","NORAD_CAT_ID":62407,"ELEMENT_SET_NO":999,"REV_AT_EPOCH":6727,"BSTAR":0.0006831254,"MEAN_MOTION_DOT":0.00018217,"MEAN_MOTION_DDOT":0}]
